0 COSMOS 2251 DEB
1 33945U 93036FA  13282.06133226  .00000158  00000-0  68481-4 0  8077
2 33945 074.0304 154.6361 0024324 237.0718 193.5780 14.32069493243196
0 COSMOS 2251 DEB
1 33945U 93036FA  13284.10491594  .00000220  00000-0  91468-4 0  8081
2 33945 074.0299 150.9072 0024273 233.0503 288.9759 14.32069825243484
0 COSMOS 2251 DEB
1 33945U 93036FA  13286.74170184  .00000222  00000-0  92081-4 0  8097
2 33945 074.0294 146.0958 0024194 227.8038 202.6038 14.32071159243862
0 COSMOS 2251 DEB
1 33945U 93036FA  13289.06323817  .00000251  00000-0  10265-3 0  8105
2 33945 074.0291 141.8596 0024107 223.1476 291.0501 14.32073050244195
0 COSMOS 2251 DEB
1 33945U 93036FA  13291.69622395  .00000222  00000-0  92172-4 0  8117
2 33945 074.0291 137.0551 0024014 217.7840 185.2404 14.32074575244575
0 COSMOS 2251 DEB
1 33945U 93036FA  13293.72900536  .00000286  00000-0  11574-3 0  8126
2 33945 074.0293 133.3457 0023927 213.6827 225.0895 14.32075260244864
0 COSMOS 2251 DEB
1 33945U 93036FA  13295.82899926  .00000314  00000-0  12635-3 0  8131
2 33945 074.0293 129.5137 0023836 209.4169 251.4803 14.32076489245167
